{
"type": "FeatureCollection",
"name": "data",
"features": [
{ "type": "Feature", "properties": { "LOT": "9", "AREA": "14,372", "PRICE": "$850,000", "BUILDER": null, "BLOCKS": "4" }, "geometry": { "type": "MultiPolygon", "coordinates": [ [ [ [ 1649.381435694933089, -1912.014170781807252 ], [ 1746.718401640217962, -1857.129056464103542 ], [ 1764.283691406250455, -1889.7711181640625 ], [ 1765.651249370662526, -1892.301936267023393 ], [ 1766.584165809783372, -1895.023134895186786 ], [ 1767.057057385207827, -1897.860674078033753 ], [ 1767.057057385207827, -1900.737348382903747 ], [ 1766.584165809783372, -1903.574887565750942 ], [ 1765.651249370661844, -1906.296086193914107 ], [ 1764.283691406250455, -1908.826904296875 ], [ 1760.316199402669554, -1916.355197368747667 ], [ 1757.936085190106496, -1920.46608002893754 ], [ 1754.786073528273619, -1926.012666162258483 ], [ 1752.324081325101815, -1931.897034063363208 ], [ 1750.585656374992368, -1938.03422152154576 ], [ 1749.595899152522179, -1944.335615958065546 ], [ 1749.369100395984105, -1950.710233870384855 ], [ 1749.908534768698928, -1957.066034509294923 ], [ 1751.206413577369176, -1963.311248821233221 ], [ 1753.243997230134937, -1969.355704467692476 ], [ 1755.991865810610761, -1975.112127790248451 ], [ 1759.41034386116803, -1980.497403922620379 ], [ 1763.4500732421875, -1985.43377685546875 ], [ 1776.787475585937955, -2009.17437744140625 ], [ 1768.349639853762255, -2010.040991595148625 ], [ 1759.868529245192349, -2010.17830430339086 ], [ 1751.407061632910427, -2009.585296899605964 ], [ 1743.028009166284846, -2008.26636866191302 ], [ 1734.793532590603945, -2006.231304176643789 ], [ 1726.764720102060664, -2003.495200750518279 ], [ 1719.001134159542971, -2000.078356409934031 ], [ 1711.560369615238642, -1996.006119318252559 ], [ 1704.497626442107048, -1991.308699728198235 ], [ 1697.86530022797433, -1986.020945864413306 ], [ 1691.712593474209825, -1980.182085398806748 ], [ 1686.085150582596498, -1973.835434436584592 ], [ 1681.02471923828125, -1967.028076171874773 ], [ 1649.381435694933089, -1912.014170781807252 ] ] ] ] } },
{ "type": "Feature", "properties": { "LOT": "3", "AREA": "11,250", "PRICE": "$495,000", "BUILDER": null, "BLOCKS": "5" }, "geometry": { "type": "MultiPolygon", "coordinates": [ [ [ [ 1634.669295544770421, -1551.927194531325767 ], [ 1738.684652225380432, -1493.811472600998059 ], [ 1749.502122796085814, -1512.848830129699991 ], [ 1771.947438471927398, -1500.250417766465716 ], [ 1778.349403075489136, -1510.253487459531243 ], [ 1755.115265790755075, -1522.727240184139646 ], [ 1781.431339387173466, -1569.04014656387767 ], [ 1676.599169003845191, -1626.124330945639031 ], [ 1634.669295544770421, -1551.927194531325767 ] ] ] ] } },
{ "type": "Feature", "properties": { "LOT": "2", "AREA": "13,125", "PRICE": "RESERVED", "BUILDER": "Ramsey Shaw", "BLOCKS": "6" }, "geometry": { "type": "MultiPolygon", "coordinates": [ [ [ [ 1894.278562242196813, -1772.598382734794086 ], [ 1790.567327120713117, -1832.223363482153673 ], [ 1749.465825204094472, -1758.856404544457746 ], [ 1747.530841982219499, -1755.382905392329576 ], [ 1852.450554531943908, -1697.265174326930264 ], [ 1867.227889375866653, -1723.956805837540287 ], [ 1868.038717036321032, -1725.414807869182141 ], [ 1889.557426940242976, -1713.096528644387945 ], [ 1894.759023180636859, -1722.699475549731233 ], [ 1872.889754932196411, -1734.137775094794051 ], [ 1894.278562242196813, -1772.598382734794086 ] ] ] ] } },
{ "type": "Feature", "properties": { "LOT": "3", "AREA": "11,760", "PRICE": "$475,000", "BUILDER": null, "BLOCKS": "7" }, "geometry": { "type": "MultiPolygon", "coordinates": [ [ [ [ 1826.943694395619104, -1434.567300877458138 ], [ 1927.590883597115408, -1378.325461380795787 ], [ 1960.965965957579328, -1439.568602536179924 ], [ 1971.919327271487873, -1459.974864710034126 ], [ 1972.094311551821647, -1460.600755244117408 ], [ 1972.161188493321561, -1461.247196218773297 ], [ 1972.118040654857623, -1461.895653405528947 ], [ 1971.966105136066972, -1462.52753476872067 ], [ 1971.70973810824762, -1463.124723521181522 ], [ 1971.356289917761842, -1463.670097553989308 ], [ 1970.915894342900629, -1464.148020347609872 ], [ 1934.961110714887582, -1483.644628371250747 ], [ 1872.151210920272206, -1517.973913174139852 ], [ 1848.112690349066952, -1473.274184839252712 ], [ 1829.314743715628083, -1482.000952671799496 ], [ 1823.97977321266012, -1472.931502816753436 ], [ 1842.352447236784428, -1462.737904231245921 ], [ 1826.943694395619104, -1434.567300877458138 ] ] ] ] } },
{ "type": "Feature", "properties": { "LOT": "5", "AREA": "19,701", "PRICE": "$598,000", "BUILDER": null, "BLOCKS": "8" }, "geometry": { "type": "MultiPolygon", "coordinates": [ [ [ [ 2032.714767674959376, -1824.908822633243744 ], [ 2132.370347191681503, -1770.591262874066615 ], [ 2134.614658890493047, -1775.866414463021556 ], [ 2137.434662770209798, -1780.857580399580002 ], [ 2140.795000033988345, -1785.502178634253596 ], [ 2145.439169368915373, -1790.191156515515331 ], [ 2150.594005715616277, -1794.312137542063965 ], [ 2156.190461890127153, -1797.809922651132865 ], [ 2162.153575369286045, -1800.637660265747172 ], [ 2168.403472386848989, -1802.757473854791897 ], [ 2159.667458188238925, -1919.726702132372793 ], [ 2071.373696364111765, -1965.874196983048932 ], [ 2036.429639569668552, -1906.389275874951863 ], [ 2038.012237488745086, -1896.009692261644432 ], [ 2038.898283499872605, -1885.547603816918581 ], [ 2039.083823269506865, -1875.049701781131262 ], [ 2038.568028752461714, -1864.562837227066893 ], [ 2025.731796482756408, -1871.058873668870319 ], [ 2021.380461166273108, -1861.455926763527259 ], [ 2037.533028628814009, -1852.142205654871077 ], [ 2035.913090707557785, -1840.413814542536556 ], [ 2033.675973097672795, -1828.787350688373635 ], [ 2032.714767674959376, -1824.908822633243744 ] ] ] ] } },
{ "type": "Feature", "properties": { "LOT": "1", "AREA": "15,577", "PRICE": "$759,000", "BUILDER": null, "BLOCKS": "4" }, "geometry": { "type": "MultiPolygon", "coordinates": [ [ [ [ 1466.428994603281353, -1426.740696278703354 ], [ 1343.519793048250676, -1494.016513566911271 ], [ 1341.453363416293541, -1490.579920521477106 ], [ 1335.632247102573274, -1480.023989868772787 ], [ 1330.210083007812955, -1469.257690429687045 ], [ 1326.875753889275529, -1461.965038533094685 ], [ 1324.113159520421277, -1454.437183944383833 ], [ 1321.938720703125, -1446.7188720703125 ], [ 1320.359712091421898, -1438.821733502383495 ], [ 1319.396441275614507, -1430.826098750075971 ], [ 1319.054683219111212, -1422.779902929210266 ], [ 1319.336486816406477, -1414.73138427734375 ], [ 1319.5452880859375, -1412.954772949218523 ], [ 1296.370300292968977, -1413.057678222656023 ], [ 1296.22027587890625, -1402.104309082030795 ], [ 1321.57427978515625, -1402.403503417968295 ], [ 1321.694885253906477, -1401.941284179687273 ], [ 1323.892757292092483, -1395.398286140419714 ], [ 1326.733256163998476, -1389.107576244327674 ], [ 1330.187964723525283, -1383.132088514708812 ], [ 1334.222321098870907, -1377.531603404041562 ], [ 1338.795964459172183, -1372.362149733597562 ], [ 1343.863138795560417, -1367.675444165424778 ], [ 1349.373150677085732, -1363.518373814378492 ], [ 1355.270876401994428, -1359.932527176296844 ], [ 1361.497313470678364, -1356.953778065040069 ], [ 1367.990170863201683, -1354.611926720814154 ], [ 1374.684492216106719, -1352.930401680222985 ], [ 1381.513305664062727, -1351.926025390625 ], [ 1399.118713378906477, -1350.92572021484375 ], [ 1445.532897949219205, -1350.325500488281023 ], [ 1461.54327392578125, -1380.214294433593295 ], [ 1459.501146608166437, -1385.967022873508995 ], [ 1458.206203731473806, -1391.932531354004141 ], [ 1457.679419214337031, -1398.014197783303871 ], [ 1457.929325275279552, -1404.113518683655457 ], [ 1458.951874238158553, -1410.13170463153665 ], [ 1460.730504091528474, -1415.971280329262072 ], [ 1463.236406740069924, -1421.53766339196909 ], [ 1466.428994603281353, -1426.740696278703354 ] ] ] ] } },
{ "type": "Feature", "properties": { "LOT": "2", "AREA": "12.399", "PRICE": "$678,000", "BUILDER": null, "BLOCKS": "4" }, "geometry": { "type": "MultiPolygon", "coordinates": [ [ [ [ 1534.400443235045714, -1471.524381279553381 ], [ 1395.97467041015625, -1550.697509765624773 ], [ 1387.404378590930492, -1544.341031535492903 ], [ 1379.276599192354979, -1537.427716888747 ], [ 1371.627445903453008, -1529.988283353879751 ], [ 1364.49090576171875, -1522.0557861328125 ], [ 1364.134277343750227, -1521.705200195312045 ], [ 1348.565917968750227, -1537.132812499999545 ], [ 1340.163330078125227, -1528.5802001953125 ], [ 1356.347900390625227, -1513.892211914062273 ], [ 1356.038696289062727, -1513.57562255859375 ], [ 1355.86431884765625, -1513.338623046874545 ], [ 1347.665283203125227, -1500.91070556640625 ], [ 1343.519793048250676, -1494.016513566911271 ], [ 1466.428994603281353, -1426.740696278703354 ], [ 1470.256558004019098, -1431.496106555229971 ], [ 1474.657102699311508, -1435.726871837007366 ], [ 1479.559353988133353, -1439.364467304621257 ], [ 1484.883911132812727, -1442.3499755859375 ], [ 1491.114461554996524, -1444.98364241977697 ], [ 1497.59398259016416, -1446.925746101320328 ], [ 1504.245969776506172, -1448.153355985519966 ], [ 1510.99188232421875, -1448.6519775390625 ], [ 1513.175080625787132, -1448.765237191211327 ], [ 1515.316874667722459, -1449.203302089035333 ], [ 1517.369216975837389, -1449.956344998236318 ], [ 1519.286066772100412, -1451.007472693305317 ], [ 1521.024422820490145, -1452.333104928052762 ], [ 1522.545288085937955, -1453.90350341796875 ], [ 1531.781677246093977, -1466.9241943359375 ], [ 1534.400443235045714, -1471.524381279553381 ] ] ] ] } },
{ "type": "Feature", "properties": { "LOT": "3", "AREA": "11,558", "PRICE": "$649,000", "BUILDER": null, "BLOCKS": "4" }, "geometry": { "type": "MultiPolygon", "coordinates": [ [ [ [ 1570.357843665988867, -1534.688010518154442 ], [ 1453.194519042968977, -1600.5828857421875 ], [ 1448.460876464843977, -1591.353698730468295 ], [ 1447.891723632812727, -1590.411987304687045 ], [ 1427.744323730468977, -1600.912109374999773 ], [ 1423.0928955078125, -1591.60919189453125 ], [ 1442.479309082031705, -1581.504394531249773 ], [ 1437.108093261718977, -1572.74932861328125 ], [ 1415.341918945312955, -1562.161804199218068 ], [ 1405.456553617699001, -1556.770468994193379 ], [ 1395.97467041015625, -1550.697509765624773 ], [ 1534.400443235045714, -1471.524381279553381 ], [ 1570.357843665988867, -1534.688010518154442 ] ] ] ] } },
{ "type": "Feature", "properties": { "LOT": "4", "AREA": "19,588", "PRICE": "$649,000", "BUILDER": null, "BLOCKS": "4" }, "geometry": { "type": "MultiPolygon", "coordinates": [ [ [ [ 1604.789523879910121, -1596.450000196888141 ], [ 1493.023553864030418, -1656.674578060668409 ], [ 1489.965381653841632, -1652.706272820555569 ], [ 1483.567504882812955, -1644.994812011718523 ], [ 1461.915893554687955, -1657.25347900390625 ], [ 1456.364318847656705, -1646.6002197265625 ], [ 1475.51727294921875, -1636.018005371093523 ], [ 1473.165893554687955, -1633.393310546875 ], [ 1467.597432749062818, -1626.389115987510422 ], [ 1462.639892578125, -1618.94000244140625 ], [ 1457.763878343856049, -1609.8403363938844 ], [ 1453.194519042968977, -1600.5828857421875 ], [ 1570.357843665988867, -1534.688010518154442 ], [ 1579.88531494140625, -1551.4241943359375 ], [ 1604.789523879910121, -1596.450000196888141 ] ] ] ] } },
{ "type": "Feature", "properties": { "LOT": "5", "AREA": "9,765", "PRICE": "$649,000", "BUILDER": null, "BLOCKS": "4" }, "geometry": { "type": "MultiPolygon", "coordinates": [ [ [ [ 1640.442557010975861, -1660.909246908052864 ], [ 1533.149796091322742, -1719.83396144284734 ], [ 1527.881713867187955, -1711.1129150390625 ], [ 1506.694519042969205, -1722.656921386718295 ], [ 1501.29290771484375, -1712.60382080078125 ], [ 1521.837524414062727, -1701.056884765624773 ], [ 1513.713459870661154, -1687.295301093379749 ], [ 1505.12486402284776, -1673.8187425105491 ], [ 1496.081726074218977, -1660.64288330078125 ], [ 1493.023553864030418, -1656.674578060668409 ], [ 1604.789523879910121, -1596.450000196888141 ], [ 1640.442557010975861, -1660.909246908052864 ] ] ] ] } },
{ "type": "Feature", "properties": { "LOT": "6", "AREA": "9,468", "PRICE": "$649,000", "BUILDER": null, "BLOCKS": "4" }, "geometry": { "type": "MultiPolygon", "coordinates": [ [ [ [ 1673.923278719755217, -1722.761325423169865 ], [ 1570.075947058938709, -1780.743378498250422 ], [ 1565.052244512422021, -1772.536221166702489 ], [ 1544.67499499504197, -1783.289034804887251 ], [ 1539.47339875464786, -1773.686087899544418 ], [ 1559.257726670184866, -1763.054333562693046 ], [ 1533.149796091322742, -1719.83396144284734 ], [ 1640.442557010975861, -1660.909246908052864 ], [ 1666.311706542969205, -1707.67962646484375 ], [ 1665.967285156250227, -1707.8626708984375 ], [ 1673.923278719755217, -1722.761325423169865 ] ] ] ] } },
{ "type": "Feature", "properties": { "LOT": "7", "AREA": "9,676", "PRICE": "$700,000", "BUILDER": null, "BLOCKS": "4" }, "geometry": { "type": "MultiPolygon", "coordinates": [ [ [ [ 1710.495739248342943, -1790.481475389100069 ], [ 1610.158884508861775, -1846.466937314247843 ], [ 1601.590293876513442, -1832.323642805003146 ], [ 1581.086168677800742, -1843.707575751003333 ], [ 1574.884265468100239, -1833.304383270215567 ], [ 1595.165785312882917, -1821.732320034207532 ], [ 1570.075947058938709, -1780.743378498250422 ], [ 1673.923278719755217, -1722.761325423169865 ], [ 1693.478515625000227, -1759.381103515625 ], [ 1710.495739248342943, -1790.481475389100069 ] ] ] ] } },
{ "type": "Feature", "properties": { "LOT": "8", "AREA": "9,430", "PRICE": "RESERVED", "BUILDER": null, "BLOCKS": "4" }, "geometry": { "type": "MultiPolygon", "coordinates": [ [ [ [ 1746.718401640217962, -1857.129056464103542 ], [ 1649.381435694933089, -1912.014170781807252 ], [ 1645.406279362107398, -1905.10310309487727 ], [ 1623.765932701548081, -1916.84112972919479 ], [ 1618.164213673431277, -1906.838060036128809 ], [ 1639.595955379254519, -1895.055693700590382 ], [ 1610.158884508861775, -1846.466937314247843 ], [ 1710.495739248342943, -1790.481475389100069 ], [ 1732.1571044921875, -1830.06939697265625 ], [ 1746.718401640217962, -1857.129056464103542 ] ] ] ] } },
{ "type": "Feature", "properties": { "LOT": "1", "AREA": "13,963", "PRICE": "$558,000", "BUILDER": null, "BLOCKS": "5" }, "geometry": { "type": "MultiPolygon", "coordinates": [ [ [ [ 1700.33588458352915, -1425.644167050944816 ], [ 1597.510790414023631, -1486.173247603034724 ], [ 1570.492533444808942, -1438.363007966169789 ], [ 1556.274769081064505, -1410.785542341229529 ], [ 1554.598844115790826, -1407.507294375625406 ], [ 1553.345138885319557, -1404.045523527012392 ], [ 1552.533255793440276, -1400.454356577630278 ], [ 1552.175889100183213, -1396.789943492323346 ], [ 1552.183641678921731, -1394.734289280090707 ], [ 1551.988857041761548, -1389.740410705932618 ], [ 1551.130334606026963, -1384.817027367652599 ], [ 1549.623388073552633, -1380.051959013833766 ], [ 1547.494897265898089, -1375.530201484947384 ], [ 1544.782828661549729, -1371.332410619073471 ], [ 1542.552449329709816, -1368.629402734117093 ], [ 1540.092891021538662, -1366.133122197250259 ], [ 1539.702066098379873, -1349.654188215543627 ], [ 1606.885182924431547, -1350.563842365757409 ], [ 1615.601001404601902, -1351.305082764238932 ], [ 1624.219265036933621, -1352.80189974411519 ], [ 1632.674598977494952, -1355.042939025611759 ], [ 1640.902864304533523, -1358.011200943885342 ], [ 1648.841644551747549, -1361.684169401966983 ], [ 1656.430719175671356, -1366.033982669238867 ], [ 1663.612520365630417, -1371.027644729843132 ], [ 1670.332569731084732, -1376.627275577807723 ], [ 1676.53989155381214, -1382.790398560250196 ], [ 1685.981376332949367, -1399.793395763530498 ], [ 1709.611642501306278, -1386.5530268676589 ], [ 1715.125834669609048, -1395.443255057370834 ], [ 1690.926771444972019, -1408.699467342933758 ], [ 1700.33588458352915, -1425.644167050944816 ] ] ] ] } },
{ "type": "Feature", "properties": { "LOT": "2", "AREA": "10,625", "PRICE": "RESERVED", "BUILDER": "Ramsey Shaw", "BLOCKS": "5" }, "geometry": { "type": "MultiPolygon", "coordinates": [ [ [ [ 1738.684652225380432, -1493.811472600998059 ], [ 1634.669295544770421, -1551.927194531325767 ], [ 1597.510790414023631, -1486.173247603034724 ], [ 1700.33588458352915, -1425.644167050944816 ], [ 1716.674310937745304, -1455.067740154679541 ], [ 1739.537492666394655, -1441.432367971239955 ], [ 1745.339273088372465, -1450.435130694999316 ], [ 1722.051752855187715, -1464.539708006899218 ], [ 1738.684652225380432, -1493.811472600998059 ] ] ] ] } },
{ "type": "Feature", "properties": { "LOT": "1", "AREA": "13,125", "PRICE": "$495,000", "BUILDER": null, "BLOCKS": "6" }, "geometry": { "type": "MultiPolygon", "coordinates": [ [ [ [ 1852.450554531943908, -1697.265174326930264 ], [ 1747.530841982219499, -1755.382905392329576 ], [ 1703.140498003318953, -1675.697551829438453 ], [ 1702.90955724167884, -1675.104953341449118 ], [ 1702.777482906497653, -1674.482809488838939 ], [ 1702.747751483253069, -1673.847496459045033 ], [ 1702.821145568055726, -1673.215737081061434 ], [ 1702.995733268009872, -1672.60416064399169 ], [ 1703.266919052858611, -1672.028865177774378 ], [ 1703.627564719396332, -1671.50499371781325 ], [ 1704.068177284596004, -1671.046335707153503 ], [ 1704.577158861690805, -1670.664964028168242 ], [ 1705.141111941932195, -1670.370917217880788 ], [ 1806.498141817076885, -1614.560271801672116 ], [ 1828.371520879246873, -1653.77230499848929 ], [ 1828.98113953104621, -1654.873431594569183 ], [ 1849.928599172881604, -1642.986124617877977 ], [ 1855.217722273089748, -1651.876352807590365 ], [ 1833.697966605511738, -1663.393222984603199 ], [ 1852.450554531943908, -1697.265174326930264 ] ] ] ] } },
{ "type": "Feature", "properties": { "LOT": "3", "AREA": "13,518", "PRICE": "$525,000", "BUILDER": null, "BLOCKS": "6" }, "geometry": { "type": "MultiPolygon", "coordinates": [ [ [ [ 1790.567327120713117, -1832.223363482153673 ], [ 1894.278562242196813, -1772.598382734794086 ], [ 1918.114049491460946, -1815.458524944480814 ], [ 1938.794758873888668, -1804.880250339205759 ], [ 1943.99635511428346, -1814.283135850687131 ], [ 1923.293810851632315, -1825.217622688114488 ], [ 1927.039994377754965, -1834.011523442677117 ], [ 1930.048782755428419, -1843.084217308937014 ], [ 1932.299710149572093, -1852.373991652740187 ], [ 1923.304742546383522, -1855.741354889704098 ], [ 1914.59733593531746, -1859.794705042558235 ], [ 1906.229713792704615, -1864.509731768944221 ], [ 1893.830315363544742, -1871.748825566037794 ], [ 1831.668829037331761, -1905.590322419849826 ], [ 1790.567327120713117, -1832.223363482153673 ] ] ] ] } },
{ "type": "Feature", "properties": { "LOT": "1", "AREA": "12,786", "PRICE": "$515,000", "BUILDER": null, "BLOCKS": "7" }, "geometry": { "type": "MultiPolygon", "coordinates": [ [ [ [ 1884.168994034512025, -1296.414797298463327 ], [ 1761.966483822939836, -1363.111333968353847 ], [ 1761.027121277633341, -1360.897122254418036 ], [ 1780.235757406678886, -1348.972231684977714 ], [ 1776.921987442287673, -1343.120254939351526 ], [ 1771.530064579351347, -1334.044307454500085 ], [ 1765.61095428131739, -1325.303038199560433 ], [ 1759.185366865173819, -1316.927031915827229 ], [ 1752.275784755733639, -1308.945595329564412 ], [ 1744.906383822094085, -1301.386654610990718 ], [ 1737.102948788930007, -1294.276657663675905 ], [ 1728.892783018570981, -1287.640481586229953 ], [ 1720.304612979535705, -1281.50134563006668 ], [ 1711.281765923151397, -1275.667185036852061 ], [ 1701.986742260524125, -1270.277218994145187 ], [ 1692.441392002803013, -1265.344117810533589 ], [ 1682.668153609224191, -1260.879477832595967 ], [ 1672.690001240543097, -1256.893794185125444 ], [ 1672.44656233767364, -1256.036355132501512 ], [ 1779.857301797436321, -1253.902366931313736 ], [ 1786.104876717852449, -1253.813115861022425 ], [ 1787.355180459173198, -1253.653323305216645 ], [ 1809.730666720307909, -1251.235113232368121 ], [ 1828.709033986848226, -1248.411287416013465 ], [ 1851.034848848754791, -1244.42326923819428 ], [ 1860.794898367872747, -1242.790400629784699 ], [ 1870.651831044829351, -1241.915355082457154 ], [ 1871.320816647209767, -1242.048645384114252 ], [ 1871.957584384198526, -1242.293257096504931 ], [ 1872.5437548709358, -1242.642129854378481 ], [ 1873.062409139417014, -1243.085193947365951 ], [ 1873.4985769801674, -1243.609660967686295 ], [ 1873.839669035807674, -1244.200392929144073 ], [ 1874.075840174748009, -1244.840339203326266 ], [ 1874.200273656750142, -1245.511028661470164 ], [ 1874.209377888329527, -1246.193102817025419 ], [ 1874.102890088936419, -1246.866874580524609 ], [ 1874.870230756640467, -1259.427875479421346 ], [ 1876.353580769876089, -1271.924564161653734 ], [ 1878.975948130600045, -1281.879652929630765 ], [ 1882.23141434840818, -1291.646051583055396 ], [ 1884.168994034512025, -1296.414797298463327 ] ] ] ] } },
{ "type": "Feature", "properties": { "LOT": "2", "AREA": "11,772", "PRICE": "$475,000", "BUILDER": null, "BLOCKS": "7" }, "geometry": { "type": "MultiPolygon", "coordinates": [ [ [ [ 1927.590883597115408, -1378.325461380795787 ], [ 1826.943694395619104, -1434.567300877458138 ], [ 1815.333775063659232, -1413.34180418467281 ], [ 1797.03817217266942, -1421.982534513405426 ], [ 1792.236698719997776, -1413.446581708655913 ], [ 1810.124129579403416, -1403.712942186185956 ], [ 1786.324872953769045, -1359.725350629840932 ], [ 1764.761600629710983, -1369.699823584315709 ], [ 1761.966483822939836, -1363.111333968353847 ], [ 1884.168994034512025, -1296.414797298463327 ], [ 1886.106573720615643, -1301.183543013871258 ], [ 1919.742204300267986, -1363.923166612841214 ], [ 1927.590883597115408, -1378.325461380795787 ] ] ] ] } },
{ "type": "Feature", "properties": { "LOT": "1", "AREA": "10,200", "PRICE": "$475,000", "BUILDER": null, "BLOCKS": "8" }, "geometry": { "type": "MultiPolygon", "coordinates": [ [ [ [ 2035.430688485398605, -1576.75827982266037 ], [ 1935.679118630933772, -1633.449272377792795 ], [ 1925.7517592514223, -1615.402060356247603 ], [ 1906.684963047282508, -1625.31112183868072 ], [ 1902.333627730798753, -1615.408082842545127 ], [ 1920.280102545461204, -1605.454989347073479 ], [ 1897.095214636674882, -1563.306561775370483 ], [ 1931.422415466712437, -1545.023173280822903 ], [ 1968.833896118778966, -1524.616911106969383 ], [ 1992.641201988274588, -1511.662935854449188 ], [ 1995.25762990486669, -1510.509456880467496 ], [ 1995.578135656861377, -1510.250939588925348 ], [ 1995.935736585067389, -1510.046790860704277 ], [ 1996.321296282558251, -1509.902226526378399 ], [ 1996.724964019055278, -1509.820940084708582 ], [ 1997.13642641891397, -1509.805008336817082 ], [ 1997.545170959308052, -1509.854838325639321 ], [ 1997.940754556466118, -1509.969156936317631 ], [ 1998.313070377793792, -1510.145043423226525 ], [ 1998.652606063057192, -1510.378004032602803 ], [ 1998.950686757294307, -1510.662086814220174 ], [ 1999.199696746156405, -1510.990033688781523 ], [ 1999.393274031094506, -1511.353465885820242 ], [ 2008.311635854317956, -1528.261779626380076 ], [ 2025.391877355227507, -1558.671111493299804 ], [ 2035.430688485398605, -1576.75827982266037 ] ] ] ] } },
{ "type": "Feature", "properties": { "LOT": "2", "AREA": "9,000", "PRICE": "$450,000", "BUILDER": null, "BLOCKS": "8" }, "geometry": { "type": "MultiPolygon", "coordinates": [ [ [ [ 2070.467330924864655, -1639.160495274481491 ], [ 1970.473911402581507, -1696.70365638766566 ], [ 1964.604979995772283, -1686.034369078778127 ], [ 1947.034382316608117, -1694.871357032071046 ], [ 1941.966160338787404, -1685.535158651876372 ], [ 1958.859809367692151, -1675.5900697982579 ], [ 1935.679118630933772, -1633.449272377792795 ], [ 2035.430688485398605, -1576.75827982266037 ], [ 2048.598999043138974, -1600.483942810314147 ], [ 2068.605138429271392, -1635.694748129905292 ], [ 2070.467330924864655, -1639.160495274481491 ] ] ] ] } },
{ "type": "Feature", "properties": { "LOT": "3", "AREA": "9,000", "PRICE": "$450,000", "BUILDER": null, "BLOCKS": "8" }, "geometry": { "type": "MultiPolygon", "coordinates": [ [ [ [ 2104.566290885881699, -1702.543135781697629 ], [ 2004.671528901594684, -1757.286445838848067 ], [ 1997.561322504714553, -1745.922999659920606 ], [ 1980.377947960159418, -1755.956769291058436 ], [ 1974.242731881747659, -1746.087073860567216 ], [ 1991.827021828923989, -1735.522046701912586 ], [ 1970.473911402581507, -1696.70365638766566 ], [ 2070.467330924864655, -1639.160495274481491 ], [ 2090.211768966291856, -1675.907088296029542 ], [ 2104.566290885881699, -1702.543135781697629 ] ] ] ] } },
{ "type": "Feature", "properties": { "LOT": "4", "AREA": "9,026", "PRICE": "$450,000", "BUILDER": null, "BLOCKS": "8" }, "geometry": { "type": "MultiPolygon", "coordinates": [ [ [ [ 2132.370347191681503, -1770.591262874066615 ], [ 2032.714767674959376, -1824.908822633243744 ], [ 2030.827920541551975, -1817.295268475380908 ], [ 2030.762129365962664, -1817.073611370193703 ], [ 2015.894402631482308, -1825.135405899861098 ], [ 2010.942883133414853, -1814.932274812934338 ], [ 2027.159983987254463, -1805.867722129648428 ], [ 2022.46064441892122, -1793.313872055304046 ], [ 2017.136912216293922, -1781.011806395329131 ], [ 2011.202216829445433, -1768.992557885836504 ], [ 2004.671528901594684, -1757.286445838848067 ], [ 2104.566290885881699, -1702.543135781697629 ], [ 2114.68594614866015, -1721.32102470254722 ], [ 2128.856961547169249, -1746.612119243181496 ], [ 2129.597813896311891, -1748.009423040931551 ], [ 2129.334855744749348, -1753.736116004449286 ], [ 2129.713790919466192, -1759.456305461209922 ], [ 2130.729868117829483, -1765.098268454250729 ], [ 2132.370347191681503, -1770.591262874066615 ] ] ] ] } }
]
}
